NORAD_CAT_ID,OBJECT_NAME,OBJECT_TYPE,EPOCH,MEAN_MOTION,ECCENTRICITY,INCLINATION,RA_OF_ASC_NODE,ARG_OF_PERICENTER,MEAN_ANOMALY,BSTAR,MEAN_MOTION_DOT,MEAN_MOTION_DDOT,TLE_LINE0,TLE_LINE1,TLE_LINE2,SEMIMAJOR_AXIS,PERIOD,APOGEE,PERIGEE,DECAYED
51747.0,STARLINK-3446,PAYLOAD,2023-11-04 20:55:27,15.08838388,0.0001605,53.218,201.0868,91.9037,268.2139,3.4013e-05,2.53e-06,0.0,0 STARLINK-3446,1 51747U 22016AK  23308.87184455  .00000253  00000-0  34013-4 0  9998,2 51747  53.2180 201.0868 0001605  91.9037 268.2139 15.08838388 95491,6917.885,95.438,540.861,538.64,0.0
51747.0,STARLINK-3446,PAYLOAD,2023-11-04 22:30:50,15.08840387,0.0001571,53.2176,200.791,92.1643,267.953,7.9357e-05,9.75e-06,0.0,0 STARLINK-3446,1 51747U 22016AK  23308.93808523  .00000975  00000-0  79357-4 0  9995,2 51747  53.2176 200.7910 0001571  92.1643 267.9530 15.08840387 94377,6917.879,95.438,540.831,538.657,0.0
51747.0,STARLINK-3446,PAYLOAD,2023-11-05 03:16:59,15.0885479,0.0001385,53.2169,199.8965,82.199,277.9159,0.00059652,9.222e-05,0.0,0 STARLINK-3446,1 51747U 22016AK  23309.13680128  .00009222  00000-0  59652-3 0  9996,2 51747  53.2169 199.8965 0001385  82.1990 277.9159 15.08854790 95534,6917.835,95.437,540.658,538.742,0.0
51747.0,STARLINK-3446,PAYLOAD,2023-11-05 09:38:32,15.08840366,0.0001566,53.2167,198.7067,82.7324,277.3846,0.00044585,6.815e-05,0.0,0 STARLINK-3446,1 51747U 22016AK  23309.40176721  .00006815  00000-0  44585-3 0  9999,2 51747  53.2167 198.7067 0001566  82.7324 277.3846 15.08840366 95576,6917.879,95.438,540.828,538.661,0.0
51747.0,STARLINK-3446,PAYLOAD,2023-11-05 22:21:37,15.08848958,0.0001981,53.2174,196.3282,84.692,275.4298,0.00060205,9.309e-05,0.0,0 STARLINK-3446,1 51747U 22016AK  23309.93168851  .00009309  00000-0  60205-3 0  9990,2 51747  53.2174 196.3282 0001981  84.6920 275.4298 15.08848958 94520,6917.853,95.437,541.088,538.348,0.0
51747.0,STARLINK-3446,PAYLOAD,2023-11-06 01:32:23,15.08870759,0.0001231,53.2161,195.7326,94.6994,265.4139,0.0012208,0.00019211,0.0,0 STARLINK-3446,1 51747U 22016AK  23310.06416073  .00019211  00000-0  12208-2 0  9990,2 51747  53.2161 195.7326 0001231  94.6994 265.4139 15.08870759 95672,6917.786,95.436,540.503,538.8,0.0
51747.0,STARLINK-3446,PAYLOAD,2023-11-06 09:29:18,15.08867874,0.0001329,53.2164,194.2461,76.2682,283.8458,0.00086322,0.00013487,0.0,0 STARLINK-3446,1 51747U 22016AK  23310.39535841  .00013487  00000-0  86322-3 0  9999,2 51747  53.2164 194.2461 0001329  76.2682 283.8458 15.08867874 95725,6917.795,95.436,540.58,538.741,0.0
51747.0,STARLINK-3446,PAYLOAD,2023-11-06 22:12:25,15.08807104,0.0001384,53.2164,191.867,104.1164,255.9982,-0.00089907,-0.00014555,0.0,0 STARLINK-3446,1 51747U 22016AK  23310.92529274 -.00014555  00000-0 -89907-3 0  9992,2 51747  53.2164 191.8670 0001384 104.1164 255.9982 15.08807104 94672,6917.981,95.44,540.803,538.888,0.0
51747.0,STARLINK-3446,PAYLOAD,2023-11-06 23:47:48,15.08804894,0.000139,53.2164,191.5697,95.4737,264.6413,-0.00088103,-0.00014269,0.0,0 STARLINK-3446,1 51747U 22016AK  23310.99153525 -.00014269  00000-0 -88103-3 0  9990,2 51747  53.2164 191.5697 0001390  95.4737 264.6413 15.08804894 95819,6917.988,95.44,540.814,538.891,0.0
51747.0,STARLINK-3446,PAYLOAD,2023-11-07 09:20:08,15.08809995,0.0001303,53.2164,189.7861,101.514,258.5998,-0.00042292,-7.007e-05,0.0,0 STARLINK-3446,1 51747U 22016AK  23311.38898164 -.00007007  00000-0 -42292-3 0  9990,2 51747  53.2164 189.7861 0001303 101.5140 258.5998 15.08809995 95875,6917.972,95.439,540.739,538.936,0.0
51747.0,STARLINK-3446,PAYLOAD,2023-11-08 01:14:00,15.08836843,0.0001509,53.2161,186.814,90.1261,269.9904,0.001704,0.00026933,0.0,0 STARLINK-3446,1 51747U 22016AK  23312.05139414  .00026933  00000-0  17040-2 0  9990,2 51747  53.2161 186.8140 0001509  90.1261 269.9904 15.08836843 95971,6917.89,95.438,540.799,538.711,0.0
51747.0,STARLINK-3446,PAYLOAD,2023-11-08 21:54:00,15.088786,0.0001525,53.2158,182.9486,89.3122,270.8045,0.0015009,0.00023705,0.0,0 STARLINK-3446,1 51747U 22016AK  23312.91250277  .00023705  00000-0  15009-2 0  9993,2 51747  53.2158 182.9486 0001525  89.3122 270.8045 15.08878600 94974,6917.762,95.435,540.682,538.572,0.0
51747.0,STARLINK-3446,PAYLOAD,2023-11-09 01:04:46,15.08887105,0.0001513,53.2159,182.3542,87.5686,272.5479,0.0016706,0.00026434,0.0,0 STARLINK-3446,1 51747U 22016AK  23313.04497893  .00026434  00000-0  16706-2 0  9992,2 51747  53.2159 182.3542 0001513  87.5686 272.5479 15.08887105 94996,6917.736,95.435,540.648,538.555,0.0
51747.0,STARLINK-3446,PAYLOAD,2023-11-09 20:09:23,15.08861887,0.0001286,53.2154,178.7876,96.0279,264.086,0.0011965,0.00018817,0.0,0 STARLINK-3446,1 51747U 22016AK  23313.83985400  .00018817  00000-0  11965-2 0  9993,2 51747  53.2154 178.7876 0001286  96.0279 264.0860 15.08861887 96249,6917.813,95.436,540.568,538.789,0.0
51747.0,STARLINK-3446,PAYLOAD,2023-11-09 21:44:46,15.08858344,0.0001283,53.2159,178.4882,99.0566,261.0571,0.001039,0.00016295,0.0,0 STARLINK-3446,1 51747U 22016AK  23313.90609333  .00016295  00000-0  10390-2 0  9998,2 51747  53.2159 178.4882 0001283  99.0566 261.0571 15.08858344 95123,6917.824,95.436,540.577,538.802,0.0
51747.0,STARLINK-3446,PAYLOAD,2023-11-10 00:55:32,15.0887043,0.0001285,53.2163,177.8934,95.6099,264.504,0.00081085,0.00012651,0.0,0 STARLINK-3446,1 51747U 22016AK  23314.03856969  .00012651  00000-0  81085-3 0  9994,2 51747  53.2163 177.8934 0001285  95.6099 264.5040 15.08870430 95145,6917.787,95.436,540.541,538.763,0.0
51747.0,STARLINK-3446,PAYLOAD,2023-11-10 20:00:10,15.08849081,0.0001501,53.2166,174.3232,102.7597,257.3563,0.0010501,0.00016468,0.0,0 STARLINK-3446,1 51747U 22016AK  23314.83345254  .00016468  00000-0  10501-2 0  9996,2 51747  53.2166 174.3232 0001501 102.7597 257.3563 15.08849081 96391,6917.853,95.437,540.756,538.679,0.0
51747.0,STARLINK-3446,PAYLOAD,2023-11-10 21:35:33,15.08844755,0.0001524,53.2166,174.025,98.5922,261.5243,0.000813,0.00012676,0.0,0 STARLINK-3446,1 51747U 22016AK  23314.89969306  .00012676  00000-0  81300-3 0  9995,2 51747  53.2166 174.0250 0001524  98.5922 261.5243 15.08844755 95278,6917.866,95.437,540.785,538.677,0.0
51747.0,STARLINK-3446,PAYLOAD,2023-11-11 19:50:57,15.08839834,0.0001398,53.2153,169.8597,97.3521,262.763,4.4776e-05,4.25e-06,0.0,0 STARLINK-3446,1 51747U 22016AK  23315.82705500  .00000425  00000-0  44776-4 0  9999,2 51747  53.2153 169.8597 0001398  97.3521 262.7630 15.08839834 96547,6917.881,95.438,540.713,538.779,0.0
51747.0,STARLINK-3446,PAYLOAD,2023-11-11 21:26:20,15.08839243,0.0001427,53.2161,169.5669,100.7752,259.3401,-2.6957e-06,-3.31e-06,0.0,0 STARLINK-3446,1 51747U 22016AK  23315.89329528 -.00000331  00000-0 -26957-5 0  9998,2 51747  53.2161 169.5669 0001427 100.7752 259.3401 15.08839243 95429,6917.883,95.438,540.735,538.761,0.0
51747.0,STARLINK-3446,PAYLOAD,2023-11-12 06:58:39,15.08839917,0.0001427,53.2161,167.783,100.6112,259.504,1.4616e-05,-5.5e-07,0.0,0 STARLINK-3446,1 51747U 22016AK  23316.29073566 -.00000055  00000-0  14616-4 0  9991,2 51747  53.2161 167.7830 0001427 100.6112 259.5040 15.08839917 95483,6917.881,95.438,540.733,538.758,0.0
51747.0,STARLINK-3446,PAYLOAD,2023-11-12 21:17:07,15.08842598,0.0001347,53.2156,165.1062,98.5474,261.5671,0.00013069,1.793e-05,0.0,0 STARLINK-3446,1 51747U 22016AK  23316.88689438  .00001793  00000-0  13069-3 0  9996,2 51747  53.2156 165.1062 0001347  98.5474 261.5671 15.08842598 95575,6917.872,95.437,540.669,538.806,0.0
51747.0,STARLINK-3446,PAYLOAD,2023-11-13 13:10:59,15.08839757,0.000144,53.2163,162.1336,98.2353,261.8802,0.00010805,1.432e-05,0.0,0 STARLINK-3446,1 51747U 22016AK  23317.54929600  .00001432  00000-0  10805-3 0  9993,2 51747  53.2163 162.1336 0001440  98.2353 261.8802 15.08839757 95674,6917.881,95.438,540.742,538.75,0.0
51747.0,STARLINK-3446,PAYLOAD,2023-11-14 00:18:41,15.08839206,0.0001398,53.2153,160.0506,92.3817,267.7336,7.069e-05,8.37e-06,0.0,0 STARLINK-3446,1 51747U 22016AK  23318.01297683  .00000837  00000-0  70690-4 0  9992,2 51747  53.2153 160.0506 0001398  92.3817 267.7336 15.08839206 96870,6917.883,95.438,540.715,538.781,0.0
51747.0,STARLINK-3446,PAYLOAD,2023-11-14 06:40:14,15.08831273,0.0001593,53.2147,158.8607,92.3262,267.7913,0.00029086,4.343e-05,0.0,0 STARLINK-3446,1 51747U 22016AK  23318.27794227  .00004343  00000-0  29086-3 0  9994,2 51747  53.2147 158.8607 0001593  92.3262 267.7913 15.08831273 96913,6917.907,95.438,540.874,538.67,0.0
51747.0,STARLINK-3446,PAYLOAD,2023-11-14 22:34:05,15.08842443,0.0001789,53.2161,155.8856,105.0001,255.119,7.2136e-05,8.6e-06,0.0,0 STARLINK-3446,1 51747U 22016AK  23318.94033861  .00000860  00000-0  72136-4 0  9993,2 51747  53.2161 155.8856 0001789 105.0001 255.1190 15.08842443 95886,6917.873,95.437,540.976,538.5,0.0
51747.0,STARLINK-3446,PAYLOAD,2023-11-15 12:52:33,15.08843019,0.0001592,53.2155,153.2106,86.2983,273.8191,0.00013026,1.786e-05,0.0,0 STARLINK-3446,1 51747U 22016AK  23319.53649664  .00001786  00000-0  13026-3 0  9993,2 51747  53.2155 153.2106 0001592  86.2983 273.8191 15.08843019 95978,6917.871,95.437,540.837,538.635,0.0
51747.0,STARLINK-3446,PAYLOAD,2023-11-15 19:14:05,15.08844427,0.000141,53.2159,152.0215,87.7308,272.3846,0.00014225,1.977e-05,0.0,0 STARLINK-3446,1 51747U 22016AK  23319.80145499  .00001977  00000-0  14225-3 0  9994,2 51747  53.2159 152.0215 0001410  87.7308 272.3846 15.08844427 97142,6917.867,95.437,540.707,538.756,0.0
51747.0,STARLINK-3446,PAYLOAD,2023-11-15 22:24:51,15.08846081,0.000138,53.2161,151.4266,87.2618,272.8532,0.00012994,1.781e-05,0.0,0 STARLINK-3446,1 51747U 22016AK  23319.93393403  .00001781  00000-0  12994-3 0  9992,2 51747  53.2161 151.4266 0001380  87.2618 272.8532 15.08846081 96031,6917.862,95.437,540.681,538.772,0.0
51747.0,STARLINK-3446,PAYLOAD,2023-11-16 12:43:20,15.08839526,0.0001448,53.2156,148.7508,87.5245,272.5912,7.5043e-05,9.07e-06,0.0,0 STARLINK-3446,1 51747U 22016AK  23320.53009868  .00000907  00000-0  75043-4 0  9993,2 51747  53.2156 148.7508 0001448  87.5245 272.5912 15.08839526 96122,6917.882,95.438,540.749,538.745,0.0
